NOAA 1 [-]              
1 04793U 70106A   17066.28677759 -.00000054  00000-0 -54044-4 0  9990
2 04793 101.8148 131.8255 0032207  94.4906 307.1941 12.53979829116388
NOAA 2 [-]              
1 06235U 72082A   17066.54109826 -.00000016  00000-0  18091-3 0  9990
2 06235 101.6687  33.3732 0003834 179.2204 292.7765 12.53090054 30719
NOAA 3 [-]              
1 06920U 73086A   17066.47090534 -.00000048  00000-0 -31204-4 0  9991
2 06920 101.9274  38.0164 0006316 268.0345 201.5265 12.40355576961936
NOAA 4 [-]              
1 07529U 74089A   17066.54107770 -.00000029  00000-0  92969-4 0  9993
2 07529 101.6276  37.4377 0008490 216.7843 251.4111 12.53109154935307
NOAA 5 [-]              
1 09057U 76077A   17066.49319010 -.00000053  00000-0 -71814-4 0  9990
2 09057 101.8193  51.8183 0010024 117.2108 357.9673 12.37765738835420
TIROS N [P]             
1 11060U 78096A   17065.74879256  .00000015  00000-0  29355-4 0  9999
2 11060  98.9091 115.4597 0009547 273.5216  86.4867 14.18147637198468
NOAA 6 [P]              
1 11416U 79057A   17066.48093145  .00000048  00000-0  33135-4 0  9996
2 11416  98.5714  55.3184 0010188 183.0169 177.0955 14.33403145965508
NOAA 7 [-]              
1 12553U 81059A   17066.51334867  .00000015  00000-0  30146-4 0  9990
2 12553  99.0408  46.4601 0011390 180.8954 287.4168 14.17211415844939
NOAA 8 [-]              
1 13923U 83022A   17066.52020540  .00000038  00000-0  32207-4 0  9990
2 13923  98.5062  59.1306 0016449 101.2777 259.0254 14.28574288767379
NOAA 9 [P]              
1 15427U 84123A   17066.52365853  .00000009  00000-0  27085-4 0  9999
2 15427  98.7931  11.7431 0013830 249.2133 240.1005 14.15990351663986
NOAA 10 [-]             
1 16969U 86073A   17066.52338209  .00000016  00000-0  23645-4 0  9998
2 16969  98.4638  78.2933 0011569 210.0021 302.9847 14.28000170585926
NOAA 11 [-]             
1 19531U 88089A   17066.17108167 -.00000056  00000-0 -73483-5 0  9996
2 19531  98.5653 128.7545 0010640 336.4762  23.5924 14.15203834468320
NOAA 12 [-]             
1 21263U 91032A   17066.54521864 -.00000007  00000-0  15143-4 0  9990
2 21263  98.5735  92.8347 0013123 214.7280 145.3044 14.25836093342247
NOAA 13 [-]             
1 22739U 93050A   17066.18902287 -.00000022  00000-0  10438-4 0  9992
2 22739  98.5747 119.3497 0010662 105.2676 254.9676 14.12677377215036
NOAA 14 [-]             
1 23455U 94089A   17066.50107054 -.00000020  00000-0  12107-4 0  9999
2 23455  98.6952 144.2427 0010568  87.1720 273.0663 14.14093658144466
NOAA 15 [B]             
1 25338U 98030A   17066.45940069  .00000030  00000-0  31566-4 0  9996
2 25338  98.7852  77.1525 0011344 137.9555 222.2497 14.25779930978512
NOAA 16 [-]             
1 26536U 00055A   17066.47047163 -.00000014  00000-0  15995-4 0  9993
2 26536  98.8656 140.2484 0009613 247.6888 112.3266 14.13170354848539
NOAA 17 [-]             
1 27453U 02032A   17066.51949997  .00000023  00000-0  27800-4 0  9997
2 27453  98.4217  35.0287 0012503 133.5314 226.6907 14.24978748764283
NOAA 18 [B]             
1 28654U 05018A   17066.53527028  .00000030  00000-0  41459-4 0  9991
2 28654  99.1904  86.2261 0014218   0.9887 359.1309 14.12327555607910
NOAA 19 [+]             
1 33591U 09005A   17066.52549343  .00000109  00000-0  84450-4 0  9995
2 33591  99.0801  31.9758 0013627 194.3309 165.7478 14.12158966416317
NPP [+]                 
1 37849U 11061A   17066.17448440  .00000018  00000-0  29151-4 0  9993
2 37849  98.7272   6.3166 0001911  83.8167  27.8043 14.19561528277614
